IRIDIUM 150             
1 43257U 18030J   25354.05235537  .00000212  00000+0  68688-4 0  9996
2 43257  86.3966   5.3509 0002365  92.8788 267.2679 14.34216776404481
IRIDIUM 143             
1 43258U 18030K   25354.10308763  .00000266  00000+0  87953-4 0  9990
2 43258  86.3970   5.4151 0002503  93.7223 266.4259 14.34222916404421
IRIDIUM 161             
1 43478U 18047C   25353.94877345  .00000084  00000+0  18878-4 0  9998
2 43478  86.4508 163.3698 0001855  88.7832 271.3582 14.43280763399287
IRIDIUM 152             
1 43479U 18047D   25354.00604372  .00000065  00000+0  16322-4 0  9996
2 43479  86.3984 163.2064 0001840  92.7815 267.3592 14.34217904396809
IRIDIUM 147             
1 43480U 18047E   25354.01237177  .00000175  00000+0  55524-4 0  9993
2 43480  86.3987 163.2064 0002042  93.3594 266.7835 14.34218804396803
IRIDIUM 110             
1 43481U 18047F   25353.94895718  .00000053  00000+0  11736-4 0  9998
2 43481  86.3989 163.3194 0001512  84.3539 275.7830 14.34217413396788
IRIDIUM 162             
1 43482U 18047G   25354.01180727  .00000075  00000+0  16207-4 0  9997
2 43482  86.4509 163.2369 0001918 100.3809 259.7608 14.43279036399282
IRIDIUM 160             
1 43569U 18061A   25354.10410367  .00000219  00000+0  71248-4 0  9991
2 43569  86.3979 131.6756 0001871  89.1284 271.0126 14.34218198387704
